[{"OBJECT_NAME":"STARLINK-11455 [DTC]","OBJECT_ID":"2024-254B","EPOCH":"2025-08-16T10:16:23.168352","MEAN_MOTION":15.70852241,"ECCENTRICITY":0.0001342,"INCLINATION":42.9988,"RA_OF_ASC_NODE":20.7024,"ARG_OF_PERICENTER":244.0176,"MEAN_ANOMALY":116.0554,"EPHEMERIS_TYPE":0,"CLASSIFICATION_TYPE":"U","NORAD_CAT_ID":62463,"ELEMENT_SET_NO":999,"REV_AT_EPOCH":3711,"BSTAR":0.0013885,"MEAN_MOTION_DOT":0.00181757,"MEAN_MOTION_DDOT":0},{"OBJECT_NAME":"STARLINK-11459 [DTC]","OBJECT_ID":"2024-254C","EPOCH":"2025-08-15T11:45:44.652960","MEAN_MOTION":15.70939782,"ECCENTRICITY":0.0002126,"INCLINATION":42.9999,"RA_OF_ASC_NODE":25.6853,"ARG_OF_PERICENTER":258.909,"MEAN_ANOMALY":101.1539,"EPHEMERIS_TYPE":0,"CLASSIFICATION_TYPE":"U","NORAD_CAT_ID":62464,"ELEMENT_SET_NO":999,"REV_AT_EPOCH":3696,"BSTAR":0.0016116,"MEAN_MOTION_DOT":0.00212611,"MEAN_MOTION_DDOT":0},{"OBJECT_NAME":"STARLINK-11178 [DTC]","OBJECT_ID":"2024-254D","EPOCH":"2025-08-16T09:53:27.224160","MEAN_MOTION":15.7086836,"ECCENTRICITY":8.67e-5,"INCLINATION":42.9982,"RA_OF_ASC_NODE":20.5778,"ARG_OF_PERICENTER":293.1355,"MEAN_ANOMALY":66.9421,"EPHEMERIS_TYPE":0,"CLASSIFICATION_TYPE":"U","NORAD_CAT_ID":62465,"ELEMENT_SET_NO":999,"REV_AT_EPOCH":3695,"BSTAR":0.0013373,"MEAN_MOTION_DOT":0.00175013,"MEAN_MOTION_DDOT":0},{"OBJECT_NAME":"STARLINK-11506 [DTC]","OBJECT_ID":"2024-254E","EPOCH":"2025-08-16T10:00:01.999584","MEAN_MOTION":15.70848749,"ECCENTRICITY":0.0001661,"INCLINATION":43.0004,"RA_OF_ASC_NODE":19.9496,"ARG_OF_PERICENTER":266.0173,"MEAN_ANOMALY":0.4142,"EPHEMERIS_TYPE":0,"CLASSIFICATION_TYPE":"U","NORAD_CAT_ID":62466,"ELEMENT_SET_NO":999,"REV_AT_EPOCH":3695,"BSTAR":-0.00013052,"MEAN_MOTION_DOT":-0.00017168,"MEAN_MOTION_DDOT":0},{"OBJECT_NAME":"STARLINK-11486 [DTC]","OBJECT_ID":"2024-254F","EPOCH":"2025-08-16T10:01:06.104928","MEAN_MOTION":15.70953974,"ECCENTRICITY":0.0004343,"INCLINATION":43.0012,"RA_OF_ASC_NODE":20.6172,"ARG_OF_PERICENTER":288.6372,"MEAN_ANOMALY":71.4024,"EPHEMERIS_TYPE":0,"CLASSIFICATION_TYPE":"U","NORAD_CAT_ID":62467,"ELEMENT_SET_NO":999,"REV_AT_EPOCH":3711,"BSTAR":0.00143,"MEAN_MOTION_DOT":0.0018821,"MEAN_MOTION_DDOT":0},{"OBJECT_NAME":"STARLINK-11511 [DTC]","OBJECT_ID":"2024-254G","EPOCH":"2025-08-16T03:24:17.232768","MEAN_MOTION":15.70884462,"ECCENTRICITY":9.13e-5,"INCLINATION":42.9998,"RA_OF_ASC_NODE":21.9785,"ARG_OF_PERICENTER":4.7004,"MEAN_ANOMALY":355.3872,"EPHEMERIS_TYPE":0,"CLASSIFICATION_TYPE":"U","NORAD_CAT_ID":62468,"ELEMENT_SET_NO":999,"REV_AT_EPOCH":3707,"BSTAR":0.0014433,"MEAN_MOTION_DOT":0.00189379,"MEAN_MOTION_DDOT":0},{"OBJECT_NAME":"STARLINK-11505 [DTC]","OBJECT_ID":"2024-254H","EPOCH":"2025-08-16T03:08:59.249184","MEAN_MOTION":15.70980146,"ECCENTRICITY":0.0001704,"INCLINATION":43.0003,"RA_OF_ASC_NODE":21.8925,"ARG_OF_PERICENTER":289.9806,"MEAN_ANOMALY":70.0878,"EPHEMERIS_TYPE":0,"CLASSIFICATION_TYPE":"U","NORAD_CAT_ID":62469,"ELEMENT_SET_NO":999,"REV_AT_EPOCH":3706,"BSTAR":0.0019113,"MEAN_MOTION_DOT":0.00253928,"MEAN_MOTION_DDOT":0},{"OBJECT_NAME":"STARLINK-11497 [DTC]","OBJECT_ID":"2024-254J","EPOCH":"2025-08-16T08:06:35.919072","MEAN_MOTION":15.70866401,"ECCENTRICITY":0.0001496,"INCLINATION":42.9994,"RA_OF_ASC_NODE":20.8704,"ARG_OF_PERICENTER":270.5998,"MEAN_ANOMALY":89.4698,"EPHEMERIS_TYPE":0,"CLASSIFICATION_TYPE":"U","NORAD_CAT_ID":62470,"ELEMENT_SET_NO":999,"REV_AT_EPOCH":3710,"BSTAR":0.0014543,"MEAN_MOTION_DOT":0.00190712,"MEAN_MOTION_DDOT":0},{"OBJECT_NAME":"STARLINK-11477 [DTC]","OBJECT_ID":"2024-254K","EPOCH":"2025-08-16T03:25:35.931072","MEAN_MOTION":15.70888223,"ECCENTRICITY":9.27e-5,"INCLINATION":43.0002,"RA_OF_ASC_NODE":21.9843,"ARG_OF_PERICENTER":349.4865,"MEAN_ANOMALY":10.5983,"EPHEMERIS_TYPE":0,"CLASSIFICATION_TYPE":"U","NORAD_CAT_ID":62471,"ELEMENT_SET_NO":999,"REV_AT_EPOCH":3706,"BSTAR":0.0016216,"MEAN_MOTION_DOT":0.00213489,"MEAN_MOTION_DDOT":0},{"OBJECT_NAME":"STARLINK-11500 [DTC]","OBJECT_ID":"2024-254L","EPOCH":"2025-08-16T10:31:29.279712","MEAN_MOTION":15.70860462,"ECCENTRICITY":0.0002317,"INCLINATION":43.0004,"RA_OF_ASC_NODE":19.8899,"ARG_OF_PERICENTER":272.0426,"MEAN_ANOMALY":88.0176,"EPHEMERIS_TYPE":0,"CLASSIFICATION_TYPE":"U","NORAD_CAT_ID":62472,"ELEMENT_SET_NO":999,"REV_AT_EPOCH":3659,"BSTAR":0.00074905,"MEAN_MOTION_DOT":0.00096881,"MEAN_MOTION_DDOT":0},{"OBJECT_NAME":"STARLINK-11464 [DTC]","OBJECT_ID":"2024-254M","EPOCH":"2025-08-16T09:45:48.031488","MEAN_MOTION":15.70850589,"ECCENTRICITY":0.0003134,"INCLINATION":43.0024,"RA_OF_ASC_NODE":20.5287,"ARG_OF_PERICENTER":268.2407,"MEAN_ANOMALY":91.8102,"EPHEMERIS_TYPE":0,"CLASSIFICATION_TYPE":"U","NORAD_CAT_ID":62473,"ELEMENT_SET_NO":999,"REV_AT_EPOCH":3711,"BSTAR":0.0010708,"MEAN_MOTION_DOT":0.00139357,"MEAN_MOTION_DDOT":0},{"OBJECT_NAME":"STARLINK-11502 [DTC]","OBJECT_ID":"2024-254N","EPOCH":"2025-08-16T09:22:52.479552","MEAN_MOTION":15.70875682,"ECCENTRICITY":1.37e-5,"INCLINATION":42.9977,"RA_OF_ASC_NODE":20.3999,"ARG_OF_PERICENTER":281.1619,"MEAN_ANOMALY":78.9233,"EPHEMERIS_TYPE":0,"CLASSIFICATION_TYPE":"U","NORAD_CAT_ID":62474,"ELEMENT_SET_NO":999,"REV_AT_EPOCH":3711,"BSTAR":0.001572,"MEAN_MOTION_DOT":0.00206672,"MEAN_MOTION_DDOT":0},{"OBJECT_NAME":"STARLINK-32657","OBJECT_ID":"2024-254P","EPOCH":"2025-08-16T08:49:58.709568","MEAN_MOTION":15.27577041,"ECCENTRICITY":0.0001362,"INCLINATION":43.0013,"RA_OF_ASC_NODE":99.2152,"ARG_OF_PERICENTER":266.4114,"MEAN_ANOMALY":93.6582,"EPHEMERIS_TYPE":0,"CLASSIFICATION_TYPE":"U","NORAD_CAT_ID":62475,"ELEMENT_SET_NO":999,"REV_AT_EPOCH":3605,"BSTAR":0.00060741,"MEAN_MOTION_DOT":0.00016488,"MEAN_MOTION_DDOT":0},{"OBJECT_NAME":"STARLINK-32734","OBJECT_ID":"2024-254Q","EPOCH":"2025-08-15T22:24:52.838496","MEAN_MOTION":15.27575175,"ECCENTRICITY":0.0001902,"INCLINATION":43.0032,"RA_OF_ASC_NODE":98.5133,"ARG_OF_PERICENTER":266.0211,"MEAN_ANOMALY":94.0423,"EPHEMERIS_TYPE":0,"CLASSIFICATION_TYPE":"U","NORAD_CAT_ID":62476,"ELEMENT_SET_NO":999,"REV_AT_EPOCH":3618,"BSTAR":0.0007041,"MEAN_MOTION_DOT":0.00019161,"MEAN_MOTION_DDOT":0},{"OBJECT_NAME":"STARLINK-32733","OBJECT_ID":"2024-254R","EPOCH":"2025-08-16T08:26:36.817728","MEAN_MOTION":15.27580114,"ECCENTRICITY":0.00026,"INCLINATION":43.0025,"RA_OF_ASC_NODE":95.6244,"ARG_OF_PERICENTER":265.5156,"MEAN_ANOMALY":94.5399,"EPHEMERIS_TYPE":0,"CLASSIFICATION_TYPE":"U","NORAD_CAT_ID":62477,"ELEMENT_SET_NO":999,"REV_AT_EPOCH":3625,"BSTAR":0.00066117,"MEAN_MOTION_DOT":0.00017977,"MEAN_MOTION_DDOT":0},{"OBJECT_NAME":"STARLINK-32707","OBJECT_ID":"2024-254S","EPOCH":"2025-08-15T22:10:05.087136","MEAN_MOTION":15.27612541,"ECCENTRICITY":0.0001184,"INCLINATION":42.9985,"RA_OF_ASC_NODE":98.4286,"ARG_OF_PERICENTER":286.0607,"MEAN_ANOMALY":74.0114,"EPHEMERIS_TYPE":0,"CLASSIFICATION_TYPE":"U","NORAD_CAT_ID":62478,"ELEMENT_SET_NO":999,"REV_AT_EPOCH":3618,"BSTAR":0.00094822,"MEAN_MOTION_DOT":0.00025949,"MEAN_MOTION_DDOT":0},{"OBJECT_NAME":"STARLINK-32705","OBJECT_ID":"2024-254T","EPOCH":"2025-08-16T07:56:35.184192","MEAN_MOTION":15.27571204,"ECCENTRICITY":5.43e-5,"INCLINATION":42.9996,"RA_OF_ASC_NODE":88.5462,"ARG_OF_PERICENTER":284.2328,"MEAN_ANOMALY":75.8463,"EPHEMERIS_TYPE":0,"CLASSIFICATION_TYPE":"U","NORAD_CAT_ID":62479,"ELEMENT_SET_NO":999,"REV_AT_EPOCH":3617,"BSTAR":0.0010596,"MEAN_MOTION_DOT":0.00029003,"MEAN_MOTION_DDOT":0},{"OBJECT_NAME":"STARLINK-32743","OBJECT_ID":"2024-254U","EPOCH":"2025-08-16T08:15:30.877632","MEAN_MOTION":15.27581468,"ECCENTRICITY":0.000143,"INCLINATION":43.0001,"RA_OF_ASC_NODE":95.5702,"ARG_OF_PERICENTER":269.4953,"MEAN_ANOMALY":90.5734,"EPHEMERIS_TYPE":0,"CLASSIFICATION_TYPE":"U","NORAD_CAT_ID":62480,"ELEMENT_SET_NO":999,"REV_AT_EPOCH":3625,"BSTAR":0.0005638,"MEAN_MOTION_DOT":0.00015285,"MEAN_MOTION_DDOT":0},{"OBJECT_NAME":"STARLINK-32753","OBJECT_ID":"2024-254V","EPOCH":"2025-08-16T08:37:42.098592","MEAN_MOTION":15.27590992,"ECCENTRICITY":0.0003262,"INCLINATION":43.0055,"RA_OF_ASC_NODE":95.6809,"ARG_OF_PERICENTER":264.3899,"MEAN_ANOMALY":95.6581,"EPHEMERIS_TYPE":0,"CLASSIFICATION_TYPE":"U","NORAD_CAT_ID":62481,"ELEMENT_SET_NO":999,"REV_AT_EPOCH":3625,"BSTAR":0.00061764,"MEAN_MOTION_DOT":0.0001678,"MEAN_MOTION_DDOT":0},{"OBJECT_NAME":"STARLINK-32699","OBJECT_ID":"2024-254W","EPOCH":"2025-08-16T08:40:43.037472","MEAN_MOTION":15.27580177,"ECCENTRICITY":0.0002788,"INCLINATION":43.0014,"RA_OF_ASC_NODE":99.1628,"ARG_OF_PERICENTER":261.5622,"MEAN_ANOMALY":98.4914,"EPHEMERIS_TYPE":0,"CLASSIFICATION_TYPE":"U","NORAD_CAT_ID":62482,"ELEMENT_SET_NO":999,"REV_AT_EPOCH":3605,"BSTAR":0.0005399,"MEAN_MOTION_DOT":0.00014625,"MEAN_MOTION_DDOT":0},{"OBJECT_NAME":"STARLINK-32713","OBJECT_ID":"2025-003A","EPOCH":"2025-08-16T11:02:40.041888","MEAN_MOTION":15.27590759,"ECCENTRICITY":0.0001802,"INCLINATION":43.0018,"RA_OF_ASC_NODE":8.0662,"ARG_OF_PERICENTER":262.509,"MEAN_ANOMALY":97.5557,"EPHEMERIS_TYPE":0,"CLASSIFICATION_TYPE":"U","NORAD_CAT_ID":62487,"ELEMENT_SET_NO":999,"REV_AT_EPOCH":3511,"BSTAR":0.00069646,"MEAN_MOTION_DOT":0.00018959,"MEAN_MOTION_DDOT":0},{"OBJECT_NAME":"STARLINK-32732","OBJECT_ID":"2025-003B","EPOCH":"2025-08-16T02:23:46.427424","MEAN_MOTION":15.27585702,"ECCENTRICITY":0.0001838,"INCLINATION":43.0021,"RA_OF_ASC_NODE":9.6548,"ARG_OF_PERICENTER":274.3505,"MEAN_ANOMALY":85.7136,"EPHEMERIS_TYPE":0,"CLASSIFICATION_TYPE":"U","NORAD_CAT_ID":62488,"ELEMENT_SET_NO":999,"REV_AT_EPOCH":3507,"BSTAR":0.00068014,"MEAN_MOTION_DOT":0.00018504,"MEAN_MOTION_DDOT":0},{"OBJECT_NAME":"STARLINK-32328","OBJECT_ID":"2025-003C","EPOCH":"2025-08-16T01:59:55.622688","MEAN_MOTION":15.27592074,"ECCENTRICITY":0.0001962,"INCLINATION":43.0021,"RA_OF_ASC_NODE":10.3949,"ARG_OF_PERICENTER":274.643,"MEAN_ANOMALY":85.4198,"EPHEMERIS_TYPE":0,"CLASSIFICATION_TYPE":"U","NORAD_CAT_ID":62489,"ELEMENT_SET_NO":999,"REV_AT_EPOCH":3522,"BSTAR":0.00080487,"MEAN_MOTION_DOT":0.00021961,"MEAN_MOTION_DDOT":0}]
